LILACSAT-2
1 40908U 15049K   17166.23735328  .00000439  00000-0  24745-4 0  9996
2 40908  97.4642 171.3068 0015556 215.4984 144.5810 15.13111672 95832
XW-2F
1 40910U 15049M   17166.24567466  .00001148  00000-0  60528-4 0  9993
2 40910  97.4558 172.2179 0014854 214.8959 145.1900 15.15503713 95895
XW-2B
1 40911U 15049N   17166.31439830  .00000842  00000-0  45580-4 0  9996
2 40911  97.4580 171.9796 0013764 217.7202 142.3665 15.14591345 95854
DCBB
1 40912U 15049P   17166.22438906  .00001171  00000-0  58166-4 0  9990
2 40912  97.4538 174.0322 0015178 206.7522 153.3534 15.17599511 95999
TW-1C
1 40926U 15051B   17166.36548898  .00006370  00000-0  14611-3 0  9997
2 40926  97.2308 205.9407 0012075 171.1057 189.1077 15.42652728 96646
TW-1A
1 40928U 15051D   17166.24748943  .00002807  00000-0  79808-4 0  9990
2 40928  97.2282 202.0987 0012261 201.4755 158.6641 15.36080120 96405
IO-86
1 40931U 15052B   17166.28566191  .00000041  00000-0  57659-5 0  9991
2 40931   5.9995 246.2621 0012952 219.6172 140.3638 14.76529298 92689
GomX-3
1 40949U 98067HA  16292.18357804  .08527750  12374-4  77882-3 0  9992
2 40949  51.6055 106.7696 0006699 286.1344  73.8944 16.38002265 59645
LQSat
1 40958U 15057A   17166.34597848  .00000068  00000-0  10504-4 0  9991
2 40958  97.9751 241.6972 0018868  72.9692 287.4207 14.72968013 90902
AO-85
1 40967U 15058D   17165.39032362  .00000065  00000-0  26957-4 0 05151
2 40967 064.7768 227.3622 0172192 078.9849 283.0556 14.75426604076705
ATHENOXAT-1
1 41168U 15077C   17166.14123310  .00001161  00000-0  66152-4 0  9999
2 41168  14.9892 184.3745 0012177 349.5860  10.4695 15.11567863 82738
ChubuSat-2
1 41338U 16012B   17166.22249668  .00000244  00000-0  19245-4 0  9994
2 41338  31.0059 124.7443 0013494  40.8168 319.3877 14.99741365 72659
ChubuSat-3
1 41339U 16012C   17166.15097888  .00000223  00000-0  17496-4 0  9995
2 41339  31.0118 124.3421 0013470  47.2569 312.9599 14.99946766 72661
Horyu-4
1 41340U 16012D   17165.92597917  .00000390  00000-0  30084-4 0  9992
2 41340  31.0075 123.2829 0013915  53.0278 307.2030 15.00594117 72671
OUFTI-1
1 41458U 16025C   17166.38054003  .00001904  00000-0  10082-3 0  9998
2 41458  98.1848 203.8560 0174305 295.6520  62.7448 15.03169241 62309
e-st at r-II
1 41459U 16025D   17166.06839413  .00000324  00000-0  17201-4 0  9996
2 41459  98.1857 203.4805 0174869 297.2976  61.1195 15.02999953 62252
AAUSAT4
1 41460U 16025E   17166.39976921  .00000863  00000-0  45912-4 0  9998
2 41460  98.1789 203.9284 0167416 294.4709  63.9794 15.03884384 62366
MinXSS
1 41474U 98067HU  17125.52237589  .05724416  12300-4  86147-3 0  9995
2 41474 051.6449 208.6967 0008167 329.0747 030.9230 16.33400422055623
CADRE
1 41475U 98067HV  17003.74787607  .12518598  12537-4  55989-3 0  9998
2 41475  51.6110 110.0165 0004040 312.3134  47.7551 16.43344525 36494
NODES 1
1 41477U 98067HX  17166.43352199  .00064678  00000-0  30755-3 0  9994
2 41477  51.6294  12.3386 0001893 151.9760 208.2032 15.82154670 61794
NODES 2
1 41478U 98067HY  17166.41155661  .00061355  00000-0  29940-3 0  9991
2 41478  51.6329  12.9699 0002333 160.1590 200.0192 15.81598152 61782
LO-87
1 41557U 16033B   17166.11349462  .00001379  00000-0  51897-4 0  9990
2 41557  97.4597 245.6277 0014651  17.5093 342.7295 15.27035321 58116
NuSat2
1 41558U 16033C   17166.14629995  .00001268  00000-0  47899-4 0  9990
2 41558  97.4626 245.7127 0014267  16.5094 343.7253 15.26906087 58118
Lapan A3
1 41603U 16040E   17166.38090801  .00000245  00000-0  11576-4 0  9990
2 41603  97.4598 228.3868 0014444  80.5981 279.7549 15.19349444 54638
Swayam
1 41607U 16040J   17166.41935502  .00001660  00000-0  75250-4 0  9995
2 41607  97.4595 228.7143 0015156  83.3923 276.9700 15.20768717 54512
Pratham
1 41783U 16059A   17166.38248757  .00000105  00000-0  20429-4 0  9996
2 41783  98.1645 227.7732 0033755 165.8137 194.4657 14.62838021 38554
AlSat 1N
1 41789U 16059G   17166.37253093  .00000103  00000-0  19455-4 0  9995
2 41789  98.1652 228.2622 0028719 159.5555 200.7440 14.64048396 38348
ScatSat
1 41790U 16059H   17165.98647752  .00000079  00000-0  20333-4 0  9991
2 41790  98.0631 216.1251 0011373 151.2276 209.0183 14.50109690 37948
TY-1
1 41844U 16066D   17166.22417498  .00000941  00000-0  41103-4 0  9995
2 41844  97.4077 173.4098 0015126 245.4409 114.5855 15.22032771 33029
CAS-2T
1 41845U 16066E   17166.30738994  .00000114  00000-0  17168-4 0  9998
2 41845  98.7790 181.8954 0366449 253.8338 102.2847 14.37755252 31317
Pegasus-1
1 41846U 16066F   17166.29085087  .00000290  00000-0  44212-4 0  9990
2 41846  98.7825 181.6705 0369043 255.1513 100.9144 14.37015858 31206
STARS-C
1 41895U 98067KR  17166.29203389  .00022759  00000-0  26026-3 0  9998
2 41895  51.6392  43.1861 0004039 302.3969  57.7323 15.61475504 27695
Tancredo 1
1 41931U 98067KT  17165.93291381  .00045073  00000-0  41002-3 0  9993
2 41931  51.6368  42.2645 0005412 251.0869 109.0233 15.67236273 23246
TO-89
1 41932U 98067KU  17165.96430743  .00011988  00000-0  14985-3 0  9992
2 41932  51.6408  46.2567 0005624 259.6775 100.4272 15.59143572 23499
AOBA-V3LOX3
1 41935U 98067KX  17166.01921045  .00013359  00000-0  16513-3 0  9995
2 41935  51.6415  45.8745 0004887 259.1010 101.0121 15.59442818 23686
OSNSAT
1 41939U 98067KZ  17166.02393972  .00025318  00000-0  26885-3 0  9993
2 41939  51.6398  43.6401 0005898 256.6878 103.4150 15.63362319 22557
EO-88
1 42017U 17008BX  17166.39770711  .00001533  00000-0  65328-4 0  9996
2 42017  97.4940 227.8563 0006052 221.5272 138.6172 15.22959335 18692
SOMP2
1 42700U 98067LH  17165.88908696  .00012617  00000-0  17992-3 0  9995
2 42700  51.6383  49.4933 0006743 314.7731  45.3395 15.55618619  4313
HAVELSAT
1 42701U 98067LJ  17165.88960126  .00010596  00000-0  15146-3 0  9995
2 42701  51.6402  49.4951 0006754 313.9186  46.1932 15.55553401764645
Columbia
1 42702U 98067LK  17166.26988977  .00022711  00000-0  31728-3 0  9999
2 42702  51.6396  47.5348 0006665 306.9149  53.1917 15.56173439195323
PHOENIX
1 42706U 98067LP  17165.95409380  .00011861  00000-0  16944-3 0  9991
2 42706  51.6398  49.1736 0001925 295.1736  64.9740 15.55595737835315
X-CubeSat
1 42707U 98067LQ  17165.89015197  .00011618  00000-0  16606-3 0  9999
2 42707  51.6396  49.4993 0002246 291.6868  68.4568 15.55578907  4388
qbee
1 42708U 98067LR  17165.89067056  .00011686  00000-0  16726-3 0  9999
2 42708  51.6390  49.5027 0002045 287.6714  72.4739 15.55543915  4548
ZA-AeroSat
1 42713U 98067LU  17165.89431977  .00010260  00000-0  14801-3 0  9991
2 42713  51.6398  49.5255 0003011 244.2765 115.8600 15.55328552  4248
LINK
1 42714U 98067LV  17166.28004325  .00011529  00000-0  16609-3 0  9996
2 42714  51.6396  47.6026 0002948 252.4770 107.6584 15.55363703  4424
UPSat
1 42716U 98067LX  17165.89179919  .00013414  00000-0  19173-3 0  9990
2 42716  51.6390  49.5111 0005198 315.9233  44.2028 15.55567506  4364
SpaceCube
1 42717U 98067LY  17166.08589251  .00011469  00000-0  16469-3 0  9990
2 42717  51.6401  48.5566 0005079 317.3226  42.8055 15.55442754  3457
Hoopoe
1 42718U 98067LZ  17165.89274326  .00012390  00000-0  17758-3 0  9999
2 42718  51.6397  49.5152 0005310 314.2596  45.8644 15.55492668  3599
UNSW-EC0
1 42721U 98067MA  17166.09266066  .00015141  00000-0  21821-3 0  9991
2 42721  51.6413  48.6056 0007456 282.0885  77.9954 15.55324819  3256
NJUST-1
1 42722U 98067MB  17166.22300957  .00009698  00000-0  14102-3 0  9999
2 42722  51.6392  47.9732 0007926 298.7511  61.3368 15.55078424  3207
Challenger
1 42723U 98067MC  17165.64421441  .00011974  00000-0  17366-3 0  9992
2 42723  51.6392  50.8588 0007960 296.9199  63.1661 15.55148415  3169
DUTHsat
1 42724U 98067MD  17166.09406898  .00015323  00000-0  22173-3 0  9996
2 42724  51.6406  48.6144 0006985 297.8173  62.2794 15.55220864  3152
LilacSat-1
1 42725U 98067ME  17166.28818706  .00009926  00000-0  14467-3 0  9992
2 42725  51.6403  47.6598 0006954 299.5483  60.5499 15.55023441  3189
nSIGHT1
1 42726U 98067MF  17165.90351383  .00006475  00000-0  94818-4 0  9999
2 42726  51.6394  49.5847 0007347 302.4199  57.6764 15.54892516  3135
QBITO
1 42728U 98067MH  17166.03003402  .00011762  00000-0  17082-3 0  9994
2 42728  51.6406  48.9350 0004218 314.1789  45.9539 15.55141047  3195
Aalto-2
1 42729U 98067MJ  17166.02996461  .00012017  00000-0  17448-3 0  9990
2 42729  51.6413  48.9364 0003824 304.5982  55.5332 15.55149911  2666
SUSat
1 42730U 98067MK  17166.03043819  .00012233  00000-0  17784-3 0  9996
2 42730  51.6414  48.9387 0003890 303.6078  56.5226 15.55114470  2950
i-INSPIRE II
1 42731U 98067ML  17166.02975600  .00013552  00000-0  19622-3 0  9996
2 42731  51.6389  48.9327 0007953 247.2079 112.8756 15.55193958  2945
PolyITAN-2-SAU
1 42732U 98067MM  17166.02966287  .00011516  00000-0  16673-3 0  9999
2 42732  51.6389  48.9350 0008382 246.0424 114.0373 15.55191690  2377
SNUSAT-1
1 42733U 98067MN  17166.22316786  .00011157  00000-0  16195-3 0  9995
2 42733  51.6361  47.9759 0007784 248.8871 111.1972 15.55126186  3036
ExAlta-1
1 42734U 98067MP  17166.02977074  .00012866  00000-0  18616-3 0  9995
2 42734  51.6389  48.9308 0009488 272.5069  87.5520 15.55196856  2859
Aoxiang-1
1 42735U 98067MQ  17165.90182140  .00009575  00000-0  13901-3 0  9999
2 42735  51.6394  49.5725 0008733 292.3833  67.6915 15.55113617  4322
BeEagleSat
1 42736U 98067MR  17166.03067910  .00009697  00000-0  14089-3 0  9995
2 42736  51.6412  48.9402 0008394 292.8018  67.2769 15.55094721  3069
Atlantis
1 42737U 98067MS  17165.89989059  .00019693  00000-0  28222-3 0  9997
2 42737  51.6385  49.5623 0008563 289.3230  70.7519 15.55466323  3025
Object A
1 42758U 17034A   17166.44020951  .00000000  00000-0  00000 0 0  9996
2 42758  43.0132 296.0634 0006996 337.6257  22.4799 15.08374244    50
Object B
1 42759U 17034B   17166.44014948 -.00077158  00000-0  00000 0 0  9995
2 42759  43.0111 296.0584 0007012 333.6014  26.4991 15.08628895    40
